[{"OBJECT_NAME":"HULIANWANG DIGUI-08","OBJECT_ID":"2024-240H","EPOCH":"2026-03-09T22:11:03.145344","MEAN_MOTION":13.24421356,"ECCENTRICITY":0.00021595,"INCLINATION":86.5072,"RA_OF_ASC_NODE":16.8324,"ARG_OF_PERICENTER":82.9892,"MEAN_ANOMALY":277.1488,"EPHEMERIS_TYPE":0,"CLASSIFICATION_TYPE":"U","NORAD_CAT_ID":62330,"ELEMENT_SET_NO":999,"REV_AT_EPOCH":5950,"BSTAR":8.5030056e-5,"MEAN_MOTION_DOT":5.1e-7,"MEAN_MOTION_DDOT":0},{"OBJECT_NAME":"FENGYUN 1C DEB","OBJECT_ID":"1999-025DRA","EPOCH":"2026-03-08T02:19:35.330016","MEAN_MOTION":13.52479276,"ECCENTRICITY":0.02957908,"INCLINATION":99.9646,"RA_OF_ASC_NODE":125.1472,"ARG_OF_PERICENTER":336.8902,"MEAN_ANOMALY":50.9056,"EPHEMERIS_TYPE":0,"CLASSIFICATION_TYPE":"U","NORAD_CAT_ID":35242,"ELEMENT_SET_NO":999,"REV_AT_EPOCH":59281,"BSTAR":0.0012983114,"MEAN_MOTION_DOT":1.084e-5,"MEAN_MOTION_DDOT":0}]
